NORAD_CAT_ID,OBJECT_NAME,OBJECT_TYPE,EPOCH,MEAN_MOTION,ECCENTRICITY,INCLINATION,RA_OF_ASC_NODE,ARG_OF_PERICENTER,MEAN_ANOMALY,BSTAR,MEAN_MOTION_DOT,MEAN_MOTION_DDOT,TLE_LINE0,TLE_LINE1,TLE_LINE2,SEMIMAJOR_AXIS,PERIOD,APOGEE,PERIGEE,DECAYED
40536,KOMPSAT 3A,PAYLOAD,2019-06-12 04:49:07,15.12258347,0.0010702,97.5513,101.6193,350.3407,121.9534,5.5381000000000004e-05,8.93e-06,0.0,0 KOMPSAT 3A,1 40536U 15014A   19163.20078422  .00000893  00000-0  55381-4 0  9990,2 40536  97.5513 101.6193 0010702 350.3407 121.9534 15.12258347232610,6907.4519999999975,95.22200000000001,536.7090000000002,521.924,0.0
40536,KOMPSAT 3A,PAYLOAD,2019-06-12 12:39:07,15.12257341,0.0010641,97.5512,101.9421,349.2506,98.7926,4.4139e-05,6.99e-06,0.0,0 KOMPSAT 3A,1 40536U 15014A   19163.52716909  .00000699  00000-0  44139-4 0  9997,2 40536  97.5512 101.9421 0010641 349.2506  98.7926 15.12257341232669,6907.455,95.22200000000001,536.67,521.969,0.0
40536,KOMPSAT 3A,PAYLOAD,2019-06-12 20:34:43,15.12256821,0.0010618000000000001,97.5512,102.2688,348.6461,96.3578,3.5435e-05,5.48e-06,0.0,0 KOMPSAT 3A,1 40536U 15014A   19163.85745197  .00000548  00000-0  35435-4 0  9996,2 40536  97.5512 102.2688 0010618 348.6461  96.3578 15.12256821232710,6907.456,95.22200000000001,536.656,521.987,0.0
40536,KOMPSAT 3A,PAYLOAD,2019-06-13 04:37:39,15.12257069,0.0010584000000000001,97.5511,102.6005,347.5489,122.0987,3.3818e-05,5.2e-06,0.0,0 KOMPSAT 3A,1 40536U 15014A   19164.19282234  .00000520  00000-0  33818-4 0  9995,2 40536  97.5511 102.6005 0010584 347.5489 122.0987 15.12257069232767,6907.455,95.22200000000001,536.631,522.01,0.0
40536,KOMPSAT 3A,PAYLOAD,2019-06-13 09:24:48,15.12256739,0.0010505999999999998,97.551,102.7976,347.0061,127.5189,2.8849e-05,4.34e-06,0.0,0 KOMPSAT 3A,1 40536U 15014A   19164.39222358  .00000434  00000-0  28849-4 0  9990,2 40536  97.5510 102.7976 0010506 347.0061 127.5189 15.12256739232799,6907.456,95.22200000000001,536.578,522.064,0.0
40536,KOMPSAT 3A,PAYLOAD,2019-06-13 17:14:45,15.12256257,0.0010473,97.5513,103.1202,346.2983,103.8615,2.1991e-05,3.15e-06,0.0,0 KOMPSAT 3A,1 40536U 15014A   19164.71858669  .00000315  00000-0  21991-4 0  9995,2 40536  97.5513 103.1202 0010473 346.2983 103.8615 15.12256257232848,6907.458000000001,95.22200000000001,536.557,522.089,0.0
40536,KOMPSAT 3A,PAYLOAD,2019-06-13 20:23:52,15.12256399,0.001053,97.5512,103.2499,345.7561,98.9208,2.1819000000000002e-05,3.12e-06,0.0,0 KOMPSAT 3A,1 40536U 15014A   19164.84991530  .00000312  00000-0  21819-4 0  9990,2 40536  97.5512 103.2499 0010530 345.7561  98.9208 15.12256399232867,6907.4569999999985,95.22200000000001,536.596,522.049,0.0
40536,KOMPSAT 3A,PAYLOAD,2019-06-14 04:26:57,15.12256679,0.0010484000000000001,97.5511,103.5815,344.6645,125.2015,2.1391e-05,3.05e-06,0.0,0 KOMPSAT 3A,1 40536U 15014A   19165.18538576  .00000305  00000-0  21391-4 0  9992,2 40536  97.5511 103.5815 0010484 344.6645 125.2015 15.12256679232917,6907.4569999999985,95.22200000000001,536.563,522.08,0.0
40536,KOMPSAT 3A,PAYLOAD,2019-06-14 12:23:52,15.12257182,0.0010425,97.551,103.90899999999999,343.5634,128.2146,2.2713e-05,3.28e-06,0.0,0 KOMPSAT 3A,1 40536U 15014A   19165.51657753  .00000328  00000-0  22713-4 0  9992,2 40536  97.5510 103.9090 0010425 343.5634 128.2146 15.12257182232969,6907.455,95.22200000000001,536.521,522.119,0.0
40536,KOMPSAT 3A,PAYLOAD,2019-06-14 21:45:00,15.12257898,0.0010389000000000002,97.5509,104.2942,341.816,90.0945,2.5276e-05,3.72e-06,0.0,0 KOMPSAT 3A,1 40536U 15014A   19165.90625817  .00000372  00000-0  25276-4 0  9997,2 40536  97.5509 104.2942 0010389 341.8160  90.0945 15.12257898233026,6907.453,95.22200000000001,536.494,522.1419999999998,0.0
40536,KOMPSAT 3A,PAYLOAD,2019-06-15 04:16:28,15.12258457,0.0010302,97.551,104.5631,340.8733,130.1032,2.7144e-05,4.05e-06,0.0,0 KOMPSAT 3A,1 40536U 15014A   19166.17811042  .00000405  00000-0  27144-4 0  9997,2 40536  97.5510 104.5631 0010302 340.8733 130.1032 15.12258457233065,6907.451,95.22200000000001,536.432,522.2,0.0
40536,KOMPSAT 3A,PAYLOAD,2019-06-15 13:48:29,15.1225968,0.0010272999999999999,97.5511,104.9563,339.8401,132.3244,3.4294e-05,5.28e-06,0.0,0 KOMPSAT 3A,1 40536U 15014A   19166.57533660  .00000528  00000-0  34294-4 0  9998,2 40536  97.5511 104.9563 0010273 339.8401 132.3244 15.12259680233126,6907.446999999999,95.22200000000001,536.409,522.216,0.0
40536,KOMPSAT 3A,PAYLOAD,2019-06-15 20:02:08,15.12260117,0.0010229,97.5511,105.2129,338.8438,105.0833,3.5231e-05,5.44e-06,0.0,0 KOMPSAT 3A,1 40536U 15014A   19166.83481852  .00000544  00000-0  35231-4 0  9992,2 40536  97.5511 105.2129 0010229 338.8438 105.0833 15.12260117233160,6907.446,95.22200000000001,536.377,522.246,0.0
40536,KOMPSAT 3A,PAYLOAD,2019-06-16 04:05:58,15.12260596,0.0010218999999999998,97.5511,105.5451,337.6972,134.2873,3.5609000000000004e-05,5.51e-06,0.0,0 KOMPSAT 3A,1 40536U 15014A   19167.17081545  .00000551  00000-0  35609-4 0  9992,2 40536  97.5511 105.5451 0010219 337.6972 134.2873 15.12260596233215,6907.445,95.22200000000001,536.368,522.251,0.0
40536,KOMPSAT 3A,PAYLOAD,2019-06-16 13:39:32,15.12261552,0.0010255000000000002,97.5512,105.9393,336.7136,142.3559,3.9612e-05,6.2e-06,0.0,0 KOMPSAT 3A,1 40536U 15014A   19167.56912541  .00000620  00000-0  39612-4 0  9999,2 40536  97.5512 105.9393 0010255 336.7136 142.3559 15.12261552233277,6907.441999999999,95.22200000000001,536.39,522.2230000000002,0.0
40536,KOMPSAT 3A,PAYLOAD,2019-06-16 19:43:51,15.12261732,0.0010162,97.5511,106.1894,335.7306,79.8351,3.879e-05,6.06e-06,0.0,0 KOMPSAT 3A,1 40536U 15014A   19167.82212535  .00000606  00000-0  38790-4 0  9994,2 40536  97.5511 106.1894 0010162 335.7306  79.8351 15.12261732233319,6907.441,95.22200000000001,536.326,522.2869999999998,0.0
40536,KOMPSAT 3A,PAYLOAD,2019-06-17 03:55:36,15.12262019,0.0010138,97.5512,106.5273,334.6339,138.8828,3.7793e-05,5.89e-06,0.0,0 KOMPSAT 3A,1 40536U 15014A   19168.16361666  .00000589  00000-0  37793-4 0  9994,2 40536  97.5512 106.5273 0010138 334.6339 138.8828 15.12262019233361,6907.44,95.22200000000001,536.308,522.303,0.0
40536,KOMPSAT 3A,PAYLOAD,2019-06-17 10:23:38,15.12261887,0.0010125,97.5513,106.7939,333.5671,166.0432,3.5253e-05,5.45e-06,0.0,0 KOMPSAT 3A,1 40536U 15014A   19168.43308510  .00000545  00000-0  35253-4 0  9994,2 40536  97.5513 106.7939 0010125 333.5671 166.0432 15.12261887233407,6907.441,95.22200000000001,536.3,522.312,0.0
40536,KOMPSAT 3A,PAYLOAD,2019-06-17 19:40:41,15.12261981,0.0009991,97.5512,107.1767,331.9046,112.3817,3.2933000000000005e-05,5.05e-06,0.0,0 KOMPSAT 3A,1 40536U 15014A   19168.81992446  .00000505  00000-0  32933-4 0  9991,2 40536  97.5512 107.1767 0009991 331.9046 112.3817 15.12261981233469,6907.44,95.22200000000001,536.207,522.404,0.0
40536,KOMPSAT 3A,PAYLOAD,2019-06-18 03:44:56,15.12261817,0.0009981,97.5513,107.5094,330.6152,143.27,2.8956e-05,4.36e-06,0.0,0 KOMPSAT 3A,1 40536U 15014A   19169.15620499  .00000436  00000-0  28956-4 0  9998,2 40536  97.5513 107.5094 0009981 330.6152 143.2700 15.12261817233518,6907.441,95.22200000000001,536.2,522.4119999999998,0.0
40536,KOMPSAT 3A,PAYLOAD,2019-06-18 11:35:29,15.12261215,0.00099,97.5515,107.8329,329.3067,122.445,2.2984000000000002e-05,3.33e-06,0.0,0 KOMPSAT 3A,1 40536U 15014A   19169.48297757  .00000333  00000-0  22984-4 0  9992,2 40536  97.5515 107.8329 0009900 329.3067 122.4450 15.12261215233563,6907.443,95.22200000000001,536.146,522.469,0.0
40536,KOMPSAT 3A,PAYLOAD,2019-06-18 19:29:51,15.12260774,0.0009845000000000001,97.5515,108.1588,328.3092,115.7477,1.8125e-05,2.48e-06,0.0,0 KOMPSAT 3A,1 40536U 15014A   19169.81240385  .00000248  00000-0  18125-4 0  9991,2 40536  97.5515 108.1588 0009845 328.3092 115.7477 15.12260774233618,6907.444,95.22200000000001,536.11,522.509,0.0
40536,KOMPSAT 3A,PAYLOAD,2019-06-19 03:36:54,15.12260525,0.0009822000000000001,97.5515,108.4931,327.1612,157.0886,1.4745999999999999e-05,1.9e-06,0.0,0 KOMPSAT 3A,1 40536U 15014A   19170.15063175  .00000190  00000-0  14746-4 0  9991,2 40536  97.5515 108.4931 0009822 327.1612 157.0886 15.12260525233665,6907.445,95.22200000000001,536.094,522.525,0.0
40536,KOMPSAT 3A,PAYLOAD,2019-06-19 12:58:43,15.12259614,0.0009766,97.5514,108.8791,325.5102,121.4345,7.3041e-06,6.1e-07,0.0,0 KOMPSAT 3A,1 40536U 15014A   19170.54078428  .00000061  00000-0  73041-5 0  9992,2 40536  97.5514 108.8791 0009766 325.5102 121.4345 15.12259614233724,6907.448,95.22200000000001,536.059,522.567,0.0
40536,KOMPSAT 3A,PAYLOAD,2019-06-19 20:54:49,15.12259248,0.0009851,97.5515,109.2062,324.9108,120.8667,3.9774e-06,4e-08,0.0,0 KOMPSAT 3A,1 40536U 15014A   19170.87141067  .00000004  00000-0  39774-5 0  9990,2 40536  97.5515 109.2062 0009851 324.9108 120.8667 15.12259248233773,6907.449000000001,95.22200000000001,536.118,522.509,0.0
40536,KOMPSAT 3A,PAYLOAD,2019-06-20 05:04:40,15.12258946,0.0009873,97.5516,109.5427,323.4571,173.0794,9.8802e-07,-4.8e-07,0.0,0 KOMPSAT 3A,1 40536U 15014A   19171.21158075 -.00000048  00000-0  98802-6 0  9993,2 40536  97.5516 109.5427 0009873 323.4571 173.0794 15.12258946233825,6907.45,95.22200000000001,536.134,522.495,0.0
40536,KOMPSAT 3A,PAYLOAD,2019-06-20 09:44:08,15.12258698,0.0009849,97.5517,109.7348,322.8027,149.5932,-7.982300000000002e-07,-7.9e-07,0.0,0 KOMPSAT 3A,1 40536U 15014A   19171.40564816 -.00000079  00000-0 -79823-6 0  9995,2 40536  97.5517 109.7348 0009849 322.8027 149.5932 15.12258698233851,6907.45,95.22200000000001,536.119,522.512,0.0
40536,KOMPSAT 3A,PAYLOAD,2019-06-20 12:48:07,15.12258217,0.0009872,97.5517,109.8613,322.4666,125.1158,-3.8727e-06,-1.32e-06,0.0,0 KOMPSAT 3A,1 40536U 15014A   19171.53342427 -.00000132  00000-0 -38727-5 0  9998,2 40536  97.5517 109.8613 0009872 322.4666 125.1158 15.12258217233877,6907.4519999999975,95.22200000000001,536.136,522.498,0.0
